{
  "type": "FeatureCollection",
  "features": [
    {
      "type": "Feature",
      "properties": {
        "norad_id": 66345,
        "name": "STARLINK-35440",
        "group": "last-30-days",
        "lat": -20.034592722373983,
        "lon": 2.4192118632705646,
        "alt_km": 445.8515875725461,
        "timestamp": "2025-12-05T18:53:12.094889+00:00",
        "meta_object_name": "STARLINK-35440",
        "meta_object_id": "2025-253AC",
        "meta_epoch": "2025-12-05T06:00:02.000160",
        "meta_mean_motion": 15.40625252,
        "meta_eccentricity": 0.00010041,
        "meta_inclination": 43.0008,
        "meta_ra_of_asc_node": 28.5498,
        "meta_arg_of_pericenter": 254.7636,
        "meta_mean_anomaly": 333.6402,
        "meta_ephemeris_type": 0,
        "meta_classification_type": "U",
        "meta_norad_cat_id": 66345,
        "meta_element_set_no": 999,
        "meta_rev_at_epoch": 572,
        "meta_bstar": 0.0011799878,
        "meta_mean_motion_dot": 0.00049183,
        "meta_mean_motion_ddot": 0,
        "tle_line1": "1 66345U 25253AC  25339.25002315  .00049183  00000+0  11800-2 0  9997",
        "tle_line2": "2 66345  43.0008  28.5498 0001004 254.7636 333.6402 15.40625252  5722"
      },
      "geometry": {
        "type": "Point",
        "coordinates": [
          2.4192118632705646,
          -20.034592722373983
        ]
      }
    },
    {
      "type": "Feature",
      "properties": {
        "norad_id": 66346,
        "name": "STARLINK-35482",
        "group": "last-30-days",
        "lat": 12.096066670791787,
        "lon": 38.635633355388634,
        "alt_km": 436.0891565159109,
        "timestamp": "2025-12-05T18:53:12.094900+00:00",
        "meta_object_name": "STARLINK-35482",
        "meta_object_id": "2025-253AD",
        "meta_epoch": "2025-12-05T06:00:02.000160",
        "meta_mean_motion": 15.45221306,
        "meta_eccentricity": 0.00010512,
        "meta_inclination": 43.0008,
        "meta_ra_of_asc_node": 28.4501,
        "meta_arg_of_pericenter": 261.0081,
        "meta_mean_anomaly": 8.9579,
        "meta_ephemeris_type": 0,
        "meta_classification_type": "U",
        "meta_norad_cat_id": 66346,
        "meta_element_set_no": 999,
        "meta_rev_at_epoch": 582,
        "meta_bstar": -0.047860482,
        "meta_mean_motion_dot": -0.02067847,
        "meta_mean_motion_ddot": 0,
        "tle_line1": "1 66346U 25253AD  25339.25002315 -.02067847  00000+0 -47860-1 0  9993",
        "tle_line2": "2 66346  43.0008  28.4501 0001051 261.0081   8.9579 15.45221306  5829"
      },
      "geometry": {
        "type": "Point",
        "coordinates": [
          38.635633355388634,
          12.096066670791787
        ]
      }
    },
    {
      "type": "Feature",
      "properties": {
        "norad_id": 66347,
        "name": "STARLINK-35438",
        "group": "last-30-days",
        "lat": 29.49608367832028,
        "lon": 62.644723944372,
        "alt_km": 410.52919867163837,
        "timestamp": "2025-12-05T18:53:12.094910+00:00",
        "meta_object_name": "STARLINK-35438",
        "meta_object_id": "2025-253AE",
        "meta_epoch": "2025-12-05T04:46:32.982240",
        "meta_mean_motion": 15.50631575,
        "meta_eccentricity": 0.0001736,
        "meta_inclination": 43.0007,
        "meta_ra_of_asc_node": 28.7095,
        "meta_arg_of_pericenter": 268.9819,
        "meta_mean_anomaly": 91.0843,
        "meta_ephemeris_type": 0,
        "meta_classification_type": "U",
        "meta_norad_cat_id": 66347,
        "meta_element_set_no": 999,
        "meta_rev_at_epoch": 576,
        "meta_bstar": 0.002267896,
        "meta_mean_motion_dot": 0.00135282,
        "meta_mean_motion_ddot": 0,
        "tle_line1": "1 66347U 25253AE  25339.19899285  .00135282  00000+0  22679-2 0  9994",
        "tle_line2": "2 66347  43.0007  28.7095 0001736 268.9819  91.0843 15.50631575  5764"
      },
      "geometry": {
        "type": "Point",
        "coordinates": [
          62.644723944372,
          29.49608367832028
        ]
      }
    },
    {
      "type": "Feature",
      "properties": {
        "norad_id": 66348,
        "name": "STARLINK-35849",
        "group": "last-30-days",
        "lat": -51.78263630985841,
        "lon": -122.34776756795146,
        "alt_km": 414.18658040230457,
        "timestamp": "2025-12-05T18:53:12.094921+00:00",
        "meta_object_name": "STARLINK-35849",
        "meta_object_id": "2025-254A",
        "meta_epoch": "2025-12-05T06:00:02.000160",
        "meta_mean_motion": 15.55250692,
        "meta_eccentricity": 0.00014736,
        "meta_inclination": 53.1592,
        "meta_ra_of_asc_node": 312.4443,
        "meta_arg_of_pericenter": 78.5893,
        "meta_mean_anomaly": 76.8197,
        "meta_ephemeris_type": 0,
        "meta_classification_type": "U",
        "meta_norad_cat_id": 66348,
        "meta_element_set_no": 999,
        "meta_rev_at_epoch": 571,
        "meta_bstar": -0.034286765,
        "meta_mean_motion_dot": -0.02101434,
        "meta_mean_motion_ddot": 0,
        "tle_line1": "1 66348U 25254A   25339.25002315 -.02101434  00000+0 -34287-1 0  9996",
        "tle_line2": "2 66348  53.1592 312.4443 0001473  78.5893  76.8197 15.55250692  5711"
      },
      "geometry": {
        "type": "Point",
        "coordinates": [
          -122.34776756795146,
          -51.78263630985841
        ]
      }
    },
    {
      "type": "Feature",
      "properties": {
        "norad_id": 66349,
        "name": "STARLINK-35848",
        "group": "last-30-days",
        "lat": -51.27724907366015,
        "lon": -119.38656486311613,
        "alt_km": 414.18528393984434,
        "timestamp": "2025-12-05T18:53:12.094932+00:00",
        "meta_object_name": "STARLINK-35848",
        "meta_object_id": "2025-254B",
        "meta_epoch": "2025-12-05T06:00:02.000160",
        "meta_mean_motion": 15.55249664,
        "meta_eccentricity": 0.00015087,
        "meta_inclination": 53.1591,
        "meta_ra_of_asc_node": 312.44,
        "meta_arg_of_pericenter": 78.9605,
        "meta_mean_anomaly": 78.3662,
        "meta_ephemeris_type": 0,
        "meta_classification_type": "U",
        "meta_norad_cat_id": 66349,
        "meta_element_set_no": 999,
        "meta_rev_at_epoch": 571,
        "meta_bstar": -0.034270734,
        "meta_mean_motion_dot": -0.02100512,
        "meta_mean_motion_ddot": 0,
        "tle_line1": "1 66349U 25254B   25339.25002315 -.02100512  00000+0 -34271-1 0  9996",
        "tle_line2": "2 66349  53.1591 312.4400 0001508  78.9605  78.3662 15.55249664  5719"
      },
      "geometry": {
        "type": "Point",
        "coordinates": [
          -119.38656486311613,
          -51.27724907366015
        ]
      }
    },
    {
      "type": "Feature",
      "properties": {
        "norad_id": 66350,
        "name": "STARLINK-35829",
        "group": "last-30-days",
        "lat": -50.69861630114693,
        "lon": -116.49276245986441,
        "alt_km": 414.2656515214976,
        "timestamp": "2025-12-05T18:53:12.094942+00:00",
        "meta_object_name": "STARLINK-35829",
        "meta_object_id": "2025-254C",
        "meta_epoch": "2025-12-05T06:00:02.000160",
        "meta_mean_motion": 15.55248919,
        "meta_eccentricity": 0.00016458,
        "meta_inclination": 53.1593,
        "meta_ra_of_asc_node": 312.4358,
        "meta_arg_of_pericenter": 84.7683,
        "meta_mean_anomaly": 74.4711,
        "meta_ephemeris_type": 0,
        "meta_classification_type": "U",
        "meta_norad_cat_id": 66350,
        "meta_element_set_no": 999,
        "meta_rev_at_epoch": 571,
        "meta_bstar": -0.034187628,
        "meta_mean_motion_dot": -0.0209602,
        "meta_mean_motion_ddot": 0,
        "tle_line1": "1 66350U 25254C   25339.25002315 -.02096020  00000+0 -34188-1 0  9993",
        "tle_line2": "2 66350  53.1593 312.4358 0001645  84.7683  74.4711 15.55248919  5712"
      },
      "geometry": {
        "type": "Point",
        "coordinates": [
          -116.49276245986441,
          -50.69861630114693
        ]
      }
    },
    {
      "type": "Feature",
      "properties": {
        "norad_id": 66351,
        "name": "STARLINK-35828",
        "group": "last-30-days",
        "lat": -50.04931539219671,
        "lon": -113.6711349433266,
        "alt_km": 414.02900974431395,
        "timestamp": "2025-12-05T18:53:12.094952+00:00",
        "meta_object_name": "STARLINK-35828",
        "meta_object_id": "2025-254D",
        "meta_epoch": "2025-12-05T06:00:02.000160",
        "meta_mean_motion": 15.5524919,
        "meta_eccentricity": 0.00013646,
        "meta_inclination": 53.1593,
        "meta_ra_of_asc_node": 312.4325,
        "meta_arg_of_pericenter": 81.8991,
        "meta_mean_anomaly": 79.2573,
        "meta_ephemeris_type": 0,
        "meta_classification_type": "U",
        "meta_norad_cat_id": 66351,
        "meta_element_set_no": 999,
        "meta_rev_at_epoch": 569,
        "meta_bstar": -0.034172288,
        "meta_mean_motion_dot": -0.02095013,
        "meta_mean_motion_ddot": 0,
        "tle_line1": "1 66351U 25254D   25339.25002315 -.02095013  00000+0 -34172-1 0  9998",
        "tle_line2": "2 66351  53.1593 312.4325 0001364  81.8991  79.2573 15.55249190  5693"
      },
      "geometry": {
        "type": "Point",
        "coordinates": [
          -113.6711349433266,
          -50.04931539219671
        ]
      }
    }
  ]
}